{
    "links": {
        "self": "http://www.neowsapp.com/rest/v1/neo/3791280?api_key=iIulBulltgU6a56xZRHN4H3l9WmuAYTsLGpBGhQ2"
    },
    "id": "3791280",
    "neo_reference_id": "3791280",
    "name": "(2017 XC2)",
    "designation": "2017 XC2",
    "nasa_jpl_url": "http://ssd.jpl.nasa.gov/sbdb.cgi?sstr=3791280",
    "absolute_magnitude_h": 19.9,
    "estimated_diameter": {
        "kilometers": {
            "estimated_diameter_min": 0.2783267681,
            "estimated_diameter_max": 0.6223575734
        },
        "meters": {
            "estimated_diameter_min": 278.3267680719,
            "estimated_diameter_max": 622.3575733667
        },
        "miles": {
            "estimated_diameter_min": 0.1729441822,
            "estimated_diameter_max": 0.3867149477
        },
        "feet": {
            "estimated_diameter_min": 913.1455937611,
            "estimated_diameter_max": 2041.8556210042
        }
    },
    "is_potentially_hazardous_asteroid": false,
    "close_approach_data": [
        {
            "close_approach_date": "2017-11-03",
            "close_approach_date_full": "2017-Nov-03 19:26",
            "epoch_date_close_approach": 1509737160000,
            "relative_velocity": {
                "kilometers_per_second": "16.3674090939",
                "kilometers_per_hour": "58922.6727380854",
                "miles_per_hour": "36612.2574021731"
            },
            "miss_distance": {
                "astronomical": "0.321037782",
                "lunar": "124.883697198",
                "kilometers": "48026568.37672434",
                "miles": "29842325.782262292"
            },
            "orbiting_body": "Earth"
        }
    ],
    "orbital_data": {
        "orbit_id": "6",
        "orbit_determination_date": "2018-01-23 06:56:46",
        "first_observation_date": "2017-12-09",
        "last_observation_date": "2018-01-23",
        "data_arc_in_days": 45,
        "observations_used": 58,
        "orbit_uncertainty": "7",
        "minimum_orbit_intersection": ".0858067",
        "jupiter_tisserand_invariant": "3.091",
        "epoch_osculation": "2459000.5",
        "eccentricity": ".5802105297748472",
        "semi_major_axis": "2.577273915271718",
        "inclination": "20.68169124947461",
        "ascending_node_longitude": "21.04424796075316",
        "orbital_period": "1511.260371143668",
        "perihelion_distance": "1.08191245151702",
        "perihelion_argument": "3.302386345400785",
        "aphelion_distance": "4.072635379026416",
        "perihelion_time": "2459572.093839191353",
        "mean_anomaly": "223.8396228485997",
        "mean_motion": ".2382117647454521",
        "equinox": "J2000",
        "orbit_class": {
            "orbit_class_type": "AMO",
            "orbit_class_description": "Near-Earth asteroid orbits similar to that of 1221 Amor",
            "orbit_class_range": "1.017 AU < q (perihelion) < 1.3 AU"
        }
    },
    "is_sentry_object": false
}